IRIDIUM 26              
1 24903U 97043A   26013.51400368  .00000335  00000+0  10560-3 0  9995
2 24903  86.3945  22.2017 0002395  91.6469 268.5003 14.37356895486950
IRIDIUM 22              
1 24907U 97043E   26013.54936537  .00000280  00000+0  89311-4 0  9994
2 24907  86.3945  25.9074 0002271  87.5671 272.5786 14.36146985486969
DUMMY MASS 1            
1 24925U 97048A   26013.56430903  .00000323  00000+0  32703-4 0  9998
2 24925  86.3320  37.9722 0008786 112.5124 247.7032 14.87213046536398
DUMMY MASS 2            
1 24926U 97048B   26013.56162068  .00000309  00000+0  31377-4 0  9993
2 24926  86.3320  39.6201 0009278 122.4204 237.7919 14.86963412536162
IRIDIUM 29              
1 24944U 97051A   26013.63477967  .00000255  00000+0  79858-4 0  9998
2 24944  86.3924  55.5456 0002090  89.1379 271.0058 14.36690106483481
IRIDIUM 33              
1 24946U 97051C   26013.64199444  .00000237  00000+0  76118-4 0  9998
2 24946  86.3839  54.8246 0009952 107.0755 253.1532 14.35061831482921
IRIDIUM 28              
1 24948U 97051E   26013.54543522  .00000282  00000+0  87405-4 0  9990
2 24948  86.3930  52.9788 0002730  96.0799 264.0710 14.37591124484068
IRIDIUM 36              
1 24967U 97056C   26013.54559296  .00000306  00000+0  94922-4 0  9990
2 24967  86.3946  84.6097 0002418  92.1124 268.0351 14.37816781482447
